INTELSAT 902 (IS-902)   
1 26900U 01039A   26127.25047478 -.00000274  00000+0  00000+0 0  9997
2 26900   6.0163  72.2716 0004337 329.2182 223.6841  1.00270995 90282
INTELSAT 904 (IS-904)   
1 27380U 02007A   26127.68192463 -.00000216  00000+0  00000+0 0  9994
2 27380   6.8199  69.6611 0007935 346.1269  23.7581  1.00271464 51365
DIRECTV 5 (TEMPO 1)     
1 27426U 02023A   26127.44210958 -.00000048  00000+0  00000+0 0  9990
2 27426   4.7742  75.8044 0003501 332.4943 226.0513  1.00272309 87718
INTELSAT 905 (IS-905)   
1 27438U 02027A   26127.51086406  .00000103  00000+0  00000+0 0  9995
2 27438   6.6523  70.2797 0003951 349.4481 212.3420  1.00271630 50954
GALAXY 3C (G-3C)        
1 27445U 02030A   26127.52678779 -.00000144  00000+0  00000+0 0  9994
2 27445   3.6250  78.5185 0001949  25.2279 216.4218  1.00272099 46086
INTELSAT 906 (IS-906)   
1 27513U 02041A   26126.98787584  .00000022  00000+0  00000+0 0  9990
2 27513   5.7002  73.4161 0004434 336.7564 234.4509  1.00270514 86613
GALAXY 13 (HORIZONS-1)  
1 27954U 03044A   26127.65852453  .00000141  00000+0  00000+0 0  9998
2 27954   1.3155  84.3305 0002129 318.1827 270.0431  1.00271435 46168
INTELSAT 10-02          
1 28358U 04022A   26127.24003244 -.00000003  00000+0  00000+0 0  9993
2 28358   0.0361  69.9060 0001741  10.5579 229.9894  1.00275267 80144
DIRECTV 8               
1 28659U 05019A   26127.59331516  .00000009  00000+0  00000+0 0  9993
2 28659   0.0167 269.9181 0003081 139.0447 271.0216  1.00270165 76668
GALAXY 28 (G-28)        
1 28702U 05022A   26127.39760979 -.00000191  00000+0  00000+0 0  9996
2 28702   3.1940  79.4160 0003330 330.6171 291.2623  1.00274622 51561
GALAXY 16 (G-16)        
1 29236U 06023A   26127.59730184 -.00000119  00000+0  00000+0 0  9998
2 29236   0.0285 148.7027 0002850 259.2512 293.5260  1.00270878 72569
DIRECTV 9S              
1 29494U 06043A   26127.59686852 -.00000105  00000+0  00000+0 0  9993
2 29494   2.3161  81.3674 0004690 342.1258 275.6371  1.00272319 50973
GALAXY 17 (G-17)        
1 31307U 07016B   26127.60007520 -.00000198  00000+0  00000+0 0  9993
2 31307   2.8695  80.3907 0004719 342.7323 293.3586  1.00271740 69393
INTELSAT 11 (IS-11)     
1 32253U 07044B   26127.39214977 -.00000181  00000+0  00000+0 0  9999
2 32253   3.4594  79.1451 0000328 233.1179 359.3809  0.99051115 68044
HORIZONS-2              
1 32388U 07063B   26127.53094780 -.00000245  00000+0  00000+0 0  9994
2 32388   2.4973  81.1045 0003874 332.5356 289.0821  1.00274253 67400
DIRECTV 11              
1 32729U 08013A   26127.59730184 -.00000118  00000+0  00000+0 0  9999
2 32729   0.0195  46.0164 0000352 338.0919 317.1897  1.00272746 45187
GALAXY 18 (G-18)        
1 32951U 08024A   26127.66381123  .00000033  00000+0  00000+0 0  9996
2 32951   0.0078 285.3770 0003192 125.8632 290.2354  1.00272206 45443
INTELSAT 25 (IS-25)     
1 33153U 08034A   26127.53216116 -.00000181  00000+0  00000+0 0  9992
2 33153   2.6027  80.7784 0002002 325.8721 302.9508  0.99464709 65286
GALAXY 19 (G-19)        
1 33376U 08045A   26127.59764852 -.00000132  00000+0  00000+0 0  9998
2 33376   0.0042  54.0679 0002899 357.4547 292.0831  1.00271211 64497
FM-5                    
1 35493U 09034A   26127.25280800 -.00000193  00000+0  00000+0 0  9995
2 35493   0.0136 276.2776 0000191 323.9195 349.7683  1.00271215 46230
INTELSAT 14 (IS-14)     
1 36097U 09064A   26127.67923794 -.00000266  00000+0  00000+0 0  9992
2 36097   0.0138 283.3810 0002657 128.7010  12.9827  1.00272609 60195
INTELSAT 15 (IS-15)     
1 36106U 09067A   26127.70505089 -.00000178  00000+0  00000+0 0  9995
2 36106   0.0116 315.3210 0002385  85.1318 164.0705  1.00273627 40820
DIRECTV 12              
1 36131U 09075A   26127.59660852 -.00000096  00000+0  00000+0 0  9998
2 36131   0.0122  75.5649 0000438 349.9392 272.0087  1.00272431 46142
INTELSAT 16 (IS-16)     
1 36397U 10006A   26127.53051448 -.00000237  00000+0  00000+0 0  9994
2 36397   0.0185  17.2079 0002593  60.4441 262.5176  1.00272256 59242
XM-5                    
1 37185U 10053A   26127.59409516 -.00000016  00000+0  00000+0 0  9996
2 37185   0.0599 272.6274 0003547 270.5785 140.9128  1.00272124 57075
INTELSAT 17 (IS-17)     
1 37238U 10065B   26127.70125138  .00000006  00000+0  00000+0 0  9994
2 37238   0.0107 234.4592 0002579 175.3926 134.1365  1.00271305 52849
INTELSAT 28 (IS-28)     
1 37392U 11016A   26127.68192463 -.00000216  00000+0  00000+0 0  9998
2 37392   1.7013  83.0920 0004193 329.6397  26.5916  1.00271963 52876
INTELSAT 18 (IS-18)     
1 37834U 11056A   26127.65254449  .00000061  00000+0  00000+0 0  9990
2 37834   0.0142 273.4526 0002226 146.5004 220.4604  1.00272071 53405
INTELSAT 22 (IS-22)     
1 38098U 12011A   26127.70246470 -.00000051  00000+0  00000+0 0  9996
2 38098   0.0051 128.6039 0001796 286.5623 135.3516  1.00271740  6787
INTELSAT 19 (IS-19)     
1 38356U 12030A   26127.36461218 -.00000048  00000+0  00000+0 0  9991
2 38356   0.0175 292.4557 0003132 119.1338 110.8986  1.00272815 50047
INTELSAT 20 (IS-20)     
1 38740U 12043A   26127.13135661 -.00000017  00000+0  00000+0 0  9993
2 38740   0.0069 242.8866 0001780 297.6309 160.2542  1.00273954 50339
INTELSAT 21 (IS-21)     
1 38749U 12045A   26127.39154310 -.00000277  00000+0  00000+0 0  9992
2 38749   0.0215  55.1901 0002071   4.8375 248.1675  1.00270744 50114
INTELSAT 23 (IS-23)     
1 38867U 12057A   26127.39249645 -.00000277  00000+0  00000+0 0  9992
2 38867   0.0161 284.5546 0000231 172.6032 216.3853  1.00268445 49543
FM-6                    
1 39360U 13058A   26127.66519788 -.00000007  00000+0  00000+0 0  9992
2 39360   0.0135 287.3934 0000796 179.5255 241.7886  1.00258556 45663
INTELSAT 30 (IS-30)     
1 40271U 14062A   26127.44633815 -.00000143  00000+0  00000+0 0  9996
2 40271   0.0208  17.0251 0001021  28.0673 245.8379  1.00271488  6388
DIRECTV 14              
1 40333U 14078B   26127.44523190 -.00000118  00000+0  00000+0 0  9998
2 40333   0.0111 300.6931 0000424 199.5013 146.1534  1.00271966 41638
DIRECTV 15              
1 40663U 15026A   26127.59652184 -.00000094  00000+0  00000+0 0  9993
2 40663   0.0375  89.6411 0000105  43.9533 203.7129  1.00268837 40056
SKY MEXICO-1            
1 40664U 15026B   26127.52999448 -.00000227  00000+0  00000+0 0  9992
2 40664   0.0104 288.1146 0002160 127.3879 281.8806  1.00272158 40040
INTELSAT 34 (IS-34)     
1 40874U 15039A   26127.39197645 -.00000278  00000+0  00000+0 0  9999
2 40874   0.0122 296.8251 0000317 121.2516 252.7713  1.00269729 39221
INTELSAT 31 (IS-31)     
1 41581U 16035A   26127.25190869 -.00000143  00000+0  00000+0 0  9999
2 41581   0.0130 250.7347 0001467  26.2934 303.7242  1.00272947 36278
INTELSAT 36 (IS-36)     
1 41747U 16053A   26127.63049531 -.00000017  00000+0  00000+0 0  9994
2 41747   0.0177   0.3151 0001333 339.9605 180.6850  1.00271419 35556
INTELSAT 32E (IS-32E)   
1 41945U 17007B   26127.25186146 -.00000261  00000+0  00000+0 0  9997
2 41945   0.0132 286.8269 0000031  73.8081 271.9578  1.00270500 33812
INTELSAT 35E (IS-35E)   
1 42818U 17041A   26127.68140463 -.00000230  00000+0  00000+0 0  9990
2 42818   0.0143 271.1122 0002126 134.8207  30.4047  1.00270863 32409
INTELSAT 37E (IS-37E)   
1 42950U 17059A   26127.24558758 -.00000133  00000+0  00000+0 0  9990
2 42950   0.0079 292.9959 0002736 121.8071 240.6893  1.00270396 31656
AZERSPACE 2 (IS-38)     
1 43632U 18074A   26127.55452124  .00000144  00000+0  00000+0 0  9991
2 43632   0.0169 273.5404 0001831 126.6700  69.9467  1.00271014 28047
HORIZONS-3E             
1 43633U 18074B   26127.65037781 -.00000023  00000+0  00000+0 0  9998
2 43633   0.0197 132.3761 0000663 196.3959 299.8496  1.00270937 27935
AT&T T-16               
1 44333U 19034A   26127.59695519 -.00000108  00000+0  00000+0 0  9999
2 44333   0.0313  88.4780 0000454 102.7114 148.3067  1.00272948 25223
INTELSAT 39 (IS-39)     
1 44476U 19049B   26127.62919530  .00000041  00000+0  00000+0 0  9994
2 44476   0.0165 271.2188 0000129 330.5571 272.1542  1.00272080 24722
GALAXY 30 (G-30)        
1 46114U 20056C   26127.66346455  .00000044  00000+0  00000+0 0  9992
2 46114   0.0157 272.8647 0002683 148.5451 277.9532  1.00271144 20887
GALAXY 33 (G-33)        
1 54026U 22128A   26127.66190455  .00000086  00000+0  00000+0 0  9998
2 54026   0.0184  20.4283 0002017  27.3397 283.0400  1.00272060 13337
GALAXY 34 (G-34)        
1 54027U 22128B   26127.47182942  .00000000  00000+0  00000+0 0  9996
2 54027   0.0155 286.3216 0001820 123.4639 216.3993  1.00270466 13506
GALAXY 31 (G-31)        
1 54243U 22153A   26127.64805006  .00000021  00000+0  00000+0 0  9999
2 54243   0.0092 223.5938 0001490 187.1621 287.0446  1.00271703  6720
GALAXY 32 (G-32)        
1 54244U 22153B   26127.44826542 -.00000167  00000+0  00000+0 0  9998
2 54244   0.0096 337.8471 0002760  47.5947 270.2456  1.00272224 12739
GALAXY 35 (G-35)        
1 54741U 22170A   26127.59842852 -.00000155  00000+0  00000+0 0  9994
2 54741   0.0121 249.6993 0002313 166.0709 292.0228  1.00272053 12487
GALAXY 36 (G-36)        
1 54742U 22170B   26127.63631586 -.00000178  00000+0  00000+0 0  9995
2 54742   0.0135 228.6844 0002724 198.4779 298.3992  1.00272467 12360
GALAXY 37 (G-37)        
1 57493U 23112A   26127.66303122  .00000056  00000+0  00000+0 0  9997
2 57493   0.0151 276.1035 0002310 131.6874 289.4211  1.00271201 10133
